SINOD-D 1               
1 40968U 15058E   26068.70671034  .00006216  00000+0  50695-3 0  9998
2 40968  64.7759 210.2419 0117281  93.1753 268.2787 14.95054547101785
KINEIS-3E               
1 61222U 24172C   26068.75722239  .00002879  00000+0  46315-3 0  9995
2 61222  98.0288 159.7640 0001612 104.7696 255.3690 14.72309398 78725
